{
  "type": "FeatureCollection",
  "features": [
    {
      "type": "Feature",
      "properties": {
        "norad_id": 41384,
        "name": "IRNSS-1F",
        "group": "gnss",
        "lat": -2.5574671021660023,
        "lon": -46.86800824432916,
        "alt_km": 35707.5804408601,
        "timestamp": "2025-12-03T13:52:09.804286+00:00",
        "meta_object_name": "IRNSS-1F",
        "meta_object_id": "2016-015A",
        "meta_epoch": "2025-12-03T01:55:20.988192",
        "meta_mean_motion": 1.00267525,
        "meta_eccentricity": 0.00224023,
        "meta_inclination": 4.8561,
        "meta_ra_of_asc_node": 101.5395,
        "meta_arg_of_pericenter": 179.5147,
        "meta_mean_anomaly": 212.3606,
        "meta_ephemeris_type": 0,
        "meta_classification_type": "U",
        "meta_norad_cat_id": 41384,
        "meta_element_set_no": 999,
        "meta_rev_at_epoch": 3570,
        "meta_bstar": 0,
        "meta_mean_motion_dot": 1.77e-06,
        "meta_mean_motion_ddot": 0,
        "tle_line1": "1 41384U 16015A   25337.08010403  .00000177  00000+0  00000+0 0  9992",
        "tle_line2": "2 41384   4.8561 101.5395 0022402 179.5147 212.3606  1.00267525 35707"
      },
      "geometry": {
        "type": "Point",
        "coordinates": [
          -46.86800824432916,
          -2.5574671021660023
        ]
      }
    },
    {
      "type": "Feature",
      "properties": {
        "norad_id": 41434,
        "name": "BEIDOU-2 IGSO-6 (C13)",
        "group": "gnss",
        "lat": -23.00326639177758,
        "lon": 25.82817127584413,
        "alt_km": 35844.67620690973,
        "timestamp": "2025-12-03T13:52:09.804298+00:00",
        "meta_object_name": "BEIDOU-2 IGSO-6 (C13)",
        "meta_object_id": "2016-021A",
        "meta_epoch": "2025-12-01T15:57:35.287200",
        "meta_mean_motion": 1.00256562,
        "meta_eccentricity": 0.00591323,
        "meta_inclination": 59.9483,
        "meta_ra_of_asc_node": 40.0119,
        "meta_arg_of_pericenter": 231.2834,
        "meta_mean_anomaly": 130.8807,
        "meta_ephemeris_type": 0,
        "meta_classification_type": "U",
        "meta_norad_cat_id": 41434,
        "meta_element_set_no": 999,
        "meta_rev_at_epoch": 3550,
        "meta_bstar": 0,
        "meta_mean_motion_dot": -1.55e-06,
        "meta_mean_motion_ddot": 0,
        "tle_line1": "1 41434U 16021A   25335.66499175 -.00000155  00000+0  00000+0 0  9991",
        "tle_line2": "2 41434  59.9483  40.0119 0059132 231.2834 130.8807  1.00256562 35501"
      },
      "geometry": {
        "type": "Point",
        "coordinates": [
          25.82817127584413,
          -23.00326639177758
        ]
      }
    },
    {
      "type": "Feature",
      "properties": {
        "norad_id": 41469,
        "name": "IRNSS-1G",
        "group": "gnss",
        "lat": -3.6943917223389975,
        "lon": 50.234994995715,
        "alt_km": 35785.95108467845,
        "timestamp": "2025-12-03T13:52:09.804309+00:00",
        "meta_object_name": "IRNSS-1G",
        "meta_object_id": "2016-027A",
        "meta_epoch": "2025-12-03T07:31:19.049952",
        "meta_mean_motion": 1.00266124,
        "meta_eccentricity": 0.00013959,
        "meta_inclination": 4.7136,
        "meta_ra_of_asc_node": 102.3315,
        "meta_arg_of_pericenter": 15.6399,
        "meta_mean_anomaly": 196.7364,
        "meta_ephemeris_type": 0,
        "meta_classification_type": "U",
        "meta_norad_cat_id": 41469,
        "meta_element_set_no": 999,
        "meta_rev_at_epoch": 3521,
        "meta_bstar": 0,
        "meta_mean_motion_dot": -3.17e-06,
        "meta_mean_motion_ddot": 0,
        "tle_line1": "1 41469U 16027A   25337.31341493 -.00000317  00000+0  00000+0 0  9998",
        "tle_line2": "2 41469   4.7136 102.3315 0001395  15.6399 196.7364  1.00266124 35212"
      },
      "geometry": {
        "type": "Point",
        "coordinates": [
          50.234994995715,
          -3.6943917223389975
        ]
      }
    },
    {
      "type": "Feature",
      "properties": {
        "norad_id": 41549,
        "name": "GSAT0211 (GALILEO 14)",
        "group": "gnss",
        "lat": 50.462616893861224,
        "lon": -75.4927899015466,
        "alt_km": 23210.472736348085,
        "timestamp": "2025-12-03T13:52:09.804321+00:00",
        "meta_object_name": "GSAT0211 (GALILEO 14)",
        "meta_object_id": "2016-030A",
        "meta_epoch": "2025-12-01T16:54:04.942368",
        "meta_mean_motion": 1.70472896,
        "meta_eccentricity": 0.00038995,
        "meta_inclination": 55.1563,
        "meta_ra_of_asc_node": 227.1275,
        "meta_arg_of_pericenter": 10.5053,
        "meta_mean_anomaly": 349.5828,
        "meta_ephemeris_type": 0,
        "meta_classification_type": "U",
        "meta_norad_cat_id": 41549,
        "meta_element_set_no": 999,
        "meta_rev_at_epoch": 5930,
        "meta_bstar": 0,
        "meta_mean_motion_dot": 3.3e-07,
        "meta_mean_motion_ddot": 0,
        "tle_line1": "1 41549U 16030A   25335.70422387  .00000033  00000+0  00000+0 0  9998",
        "tle_line2": "2 41549  55.1563 227.1275 0003899  10.5053 349.5828  1.70472896 59309"
      },
      "geometry": {
        "type": "Point",
        "coordinates": [
          -75.4927899015466,
          50.462616893861224
        ]
      }
    },
    {
      "type": "Feature",
      "properties": {
        "norad_id": 41550,
        "name": "GSAT0210 (GALILEO 13)",
        "group": "gnss",
        "lat": -55.13012512382255,
        "lon": 140.4401562260941,
        "alt_km": 23225.0472500981,
        "timestamp": "2025-12-03T13:52:09.804334+00:00",
        "meta_object_name": "GSAT0210 (GALILEO 13)",
        "meta_object_id": "2016-030B",
        "meta_epoch": "2025-12-01T09:00:06.320160",
        "meta_mean_motion": 1.70473417,
        "meta_eccentricity": 0.00012162,
        "meta_inclination": 55.1557,
        "meta_ra_of_asc_node": 227.1346,
        "meta_arg_of_pericenter": 241.6156,
        "meta_mean_anomaly": 118.4503,
        "meta_ephemeris_type": 0,
        "meta_classification_type": "U",
        "meta_norad_cat_id": 41550,
        "meta_element_set_no": 999,
        "meta_rev_at_epoch": 5929,
        "meta_bstar": 0,
        "meta_mean_motion_dot": 3.2e-07,
        "meta_mean_motion_ddot": 0,
        "tle_line1": "1 41550U 16030B   25335.37507315  .00000032  00000+0  00000+0 0  9997",
        "tle_line2": "2 41550  55.1557 227.1346 0001216 241.6156 118.4503  1.70473417 59296"
      },
      "geometry": {
        "type": "Point",
        "coordinates": [
          140.4401562260941,
          -55.13012512382255
        ]
      }
    },
    {
      "type": "Feature",
      "properties": {
        "norad_id": 41586,
        "name": "BEIDOU-2 G7 (C03)",
        "group": "gnss",
        "lat": -1.0073993883315195,
        "lon": 31.148409304944295,
        "alt_km": 35772.197412999856,
        "timestamp": "2025-12-03T13:52:09.804346+00:00",
        "meta_object_name": "BEIDOU-2 G7 (C03)",
        "meta_object_id": "2016-037A",
        "meta_epoch": "2025-12-03T07:25:57.063936",
        "meta_mean_motion": 1.00271678,
        "meta_eccentricity": 0.00044132,
        "meta_inclination": 1.7322,
        "meta_ra_of_asc_node": 67.6907,
        "meta_arg_of_pericenter": 4.6199,
        "meta_mean_anomaly": 222.0644,
        "meta_ephemeris_type": 0,
        "meta_classification_type": "U",
        "meta_norad_cat_id": 41586,
        "meta_element_set_no": 999,
        "meta_rev_at_epoch": 492,
        "meta_bstar": 0,
        "meta_mean_motion_dot": -3.35e-06,
        "meta_mean_motion_ddot": 0,
        "tle_line1": "1 41586U 16037A   25337.30968824 -.00000335  00000+0  00000+0 0  9991",
        "tle_line2": "2 41586   1.7322  67.6907 0004413   4.6199 222.0644  1.00271678  4924"
      },
      "geometry": {
        "type": "Point",
        "coordinates": [
          31.148409304944295,
          -1.0073993883315195
        ]
      }
    },
    {
      "type": "Feature",
      "properties": {
        "norad_id": 41589,
        "name": "EUTELSAT 117 WEST B (WAAS/PRN 131)",
        "group": "gnss",
        "lat": 0.007841278632340666,
        "lon": 163.67624927147168,
        "alt_km": 35786.356576735496,
        "timestamp": "2025-12-03T13:52:09.804361+00:00",
        "meta_object_name": "EUTELSAT 117 WEST B (WAAS/PRN 131)",
        "meta_object_id": "2016-038B",
        "meta_epoch": "2025-12-02T23:30:03.060576",
        "meta_mean_motion": 1.00267861,
        "meta_eccentricity": 1.928e-05,
        "meta_inclination": 0.0046,
        "meta_ra_of_asc_node": 146.1916,
        "meta_arg_of_pericenter": 23.0604,
        "meta_mean_anomaly": 138.3396,
        "meta_ephemeris_type": 0,
        "meta_classification_type": "U",
        "meta_norad_cat_id": 41589,
        "meta_element_set_no": 999,
        "meta_rev_at_epoch": 3469,
        "meta_bstar": 0,
        "meta_mean_motion_dot": 8e-08,
        "meta_mean_motion_ddot": 0,
        "tle_line1": "1 41589U 16038B   25336.97920209  .00000008  00000+0  00000+0 0  9998",
        "tle_line2": "2 41589   0.0046 146.1916 0000192  23.0604 138.3396  1.00267861 34690"
      },
      "geometry": {
        "type": "Point",
        "coordinates": [
          163.67624927147168,
          0.007841278632340666
        ]
      }
    }
  ]
}